QIANFAN-33              
1 61566U 24185Q   25210.54727276  .00000331  00000+0  23026-3 0  9996
2 61566  88.9791  94.0119 0008557  41.5603 318.6223 13.96405191 50151
QIANFAN-34              
1 61567U 24185R   25210.57139709  .00000281  00000+0  17476-3 0  9994
2 61567  88.9768  93.7527 0007473  51.2429 308.9418 14.02154631 50274
QIANFAN-35              
1 61568U 24185S   25210.59617662  .00000609  00000+0  24122-3 0  9996
2 61568  88.9791  92.8793 0008029  29.9088 330.2563 14.27652830 50750
QIANFAN-36              
1 61569U 24185T   25210.55441293  .00000071  00000+0  85169-4 0  9990
2 61569  88.9781  95.2488 0008180  77.7057 282.5012 13.55543721 49476
QIANFAN-37              
1 62238U 24232B   25210.56497965  .00000048  00000+0  56115-4 0  9998
2 62238  88.9926  55.1056 0002490  97.2319 262.9115 13.50964646 80786
QIANFAN-38              
1 62239U 24232C   25210.58974922  .00000027  00000+0  23372-4 0  9990
2 62239  88.9933  55.0096 0013050 223.6630 136.3489 13.50953155 80841
QIANFAN-39              
1 62240U 24232D   25210.85569442  .00000149  00000+0  57108-4 0  9998
2 62240  88.9931  52.8760 0016855 156.1019 204.0960 14.25228216 82037
QIANFAN-40              
1 62241U 24232E   25210.54855796  .00000027  00000+0  24066-4 0  9997
2 62241  88.9960  54.5600 0011917 232.3473 127.6598 13.50959348 81206
